[{"OBJECT_NAME":"IRIDIUM 151","OBJECT_ID":"2017-083E","EPOCH":"2026-02-01T22:42:58.944384","MEAN_MOTION":14.34217083,"ECCENTRICITY":0.00021777,"INCLINATION":86.3966,"RA_OF_ASC_NODE":18.5678,"ARG_OF_PERICENTER":87.418,"MEAN_ANOMALY":272.7265,"EPHEMERIS_TYPE":0,"CLASSIFICATION_TYPE":"U","NORAD_CAT_ID":43074,"ELEMENT_SET_NO":999,"REV_AT_EPOCH":42475,"BSTAR":2.6748885e-5,"MEAN_MOTION_DOT":9.5e-7,"MEAN_MOTION_DDOT":0},{"OBJECT_NAME":"IRIDIUM 134","OBJECT_ID":"2017-083F","EPOCH":"2026-02-01T23:37:46.988832","MEAN_MOTION":14.34216037,"ECCENTRICITY":0.000211,"INCLINATION":86.3965,"RA_OF_ASC_NODE":18.5586,"ARG_OF_PERICENTER":82.743,"MEAN_ANOMALY":277.4006,"EPHEMERIS_TYPE":0,"CLASSIFICATION_TYPE":"U","NORAD_CAT_ID":43075,"ELEMENT_SET_NO":999,"REV_AT_EPOCH":42472,"BSTAR":-4.5515156e-5,"MEAN_MOTION_DOT":-1.08e-6,"MEAN_MOTION_DDOT":0},{"OBJECT_NAME":"IRIDIUM 137","OBJECT_ID":"2017-083G","EPOCH":"2026-02-01T22:15:34.602048","MEAN_MOTION":14.34215068,"ECCENTRICITY":0.00017125,"INCLINATION":86.3969,"RA_OF_ASC_NODE":18.6723,"ARG_OF_PERICENTER":89.094,"MEAN_ANOMALY":271.0452,"EPHEMERIS_TYPE":0,"CLASSIFICATION_TYPE":"U","NORAD_CAT_ID":43076,"ELEMENT_SET_NO":999,"REV_AT_EPOCH":42478,"BSTAR":7.3651512e-5,"MEAN_MOTION_DOT":2.26e-6,"MEAN_MOTION_DDOT":0},{"OBJECT_NAME":"IRIDIUM 141","OBJECT_ID":"2017-083H","EPOCH":"2026-02-01T22:06:27.217440","MEAN_MOTION":14.3421753,"ECCENTRICITY":0.0002293,"INCLINATION":86.3969,"RA_OF_ASC_NODE":18.5132,"ARG_OF_PERICENTER":89.586,"MEAN_ANOMALY":270.5599,"EPHEMERIS_TYPE":0,"CLASSIFICATION_TYPE":"U","NORAD_CAT_ID":43077,"ELEMENT_SET_NO":999,"REV_AT_EPOCH":42478,"BSTAR":4.850062e-6,"MEAN_MOTION_DOT":3.3e-7,"MEAN_MOTION_DDOT":0},{"OBJECT_NAME":"IRIDIUM 153","OBJECT_ID":"2017-083J","EPOCH":"2026-02-01T22:38:03.603264","MEAN_MOTION":14.34216962,"ECCENTRICITY":0.00024804,"INCLINATION":86.4006,"RA_OF_ASC_NODE":347.0083,"ARG_OF_PERICENTER":85.9515,"MEAN_ANOMALY":274.1964,"EPHEMERIS_TYPE":0,"CLASSIFICATION_TYPE":"U","NORAD_CAT_ID":43078,"ELEMENT_SET_NO":999,"REV_AT_EPOCH":42589,"BSTAR":0.00011423477,"MEAN_MOTION_DOT":3.4e-6,"MEAN_MOTION_DDOT":0},{"OBJECT_NAME":"IRIDIUM 131","OBJECT_ID":"2017-083K","EPOCH":"2026-02-01T23:28:38.152704","MEAN_MOTION":14.34211377,"ECCENTRICITY":0.00022366,"INCLINATION":86.3972,"RA_OF_ASC_NODE":18.6663,"ARG_OF_PERICENTER":90.19,"MEAN_ANOMALY":269.9552,"EPHEMERIS_TYPE":0,"CLASSIFICATION_TYPE":"U","NORAD_CAT_ID":43079,"ELEMENT_SET_NO":999,"REV_AT_EPOCH":42472,"BSTAR":6.2775328e-5,"MEAN_MOTION_DOT":1.96e-6,"MEAN_MOTION_DDOT":0},{"OBJECT_NAME":"IRIDIUM 144","OBJECT_ID":"2018-030A","EPOCH":"2026-02-01T22:47:11.419872","MEAN_MOTION":14.34217,"ECCENTRICITY":0.00020768,"INCLINATION":86.4006,"RA_OF_ASC_NODE":346.9378,"ARG_OF_PERICENTER":82.1245,"MEAN_ANOMALY":278.0186,"EPHEMERIS_TYPE":0,"CLASSIFICATION_TYPE":"U","NORAD_CAT_ID":43249,"ELEMENT_SET_NO":999,"REV_AT_EPOCH":41075,"BSTAR":3.4340418e-5,"MEAN_MOTION_DOT":1.16e-6,"MEAN_MOTION_DDOT":0},{"OBJECT_NAME":"IRIDIUM 149","OBJECT_ID":"2018-030B","EPOCH":"2026-02-01T22:56:19.335840","MEAN_MOTION":14.34217778,"ECCENTRICITY":0.00022179,"INCLINATION":86.4004,"RA_OF_ASC_NODE":346.9038,"ARG_OF_PERICENTER":85.9437,"MEAN_ANOMALY":274.2013,"EPHEMERIS_TYPE":0,"CLASSIFICATION_TYPE":"U","NORAD_CAT_ID":43250,"ELEMENT_SET_NO":999,"REV_AT_EPOCH":41077,"BSTAR":6.1801854e-5,"MEAN_MOTION_DOT":1.93e-6,"MEAN_MOTION_DDOT":0},{"OBJECT_NAME":"IRIDIUM 157","OBJECT_ID":"2018-030C","EPOCH":"2026-02-01T21:43:15.402432","MEAN_MOTION":14.34216172,"ECCENTRICITY":0.00021434,"INCLINATION":86.4009,"RA_OF_ASC_NODE":346.9754,"ARG_OF_PERICENTER":87.3962,"MEAN_ANOMALY":272.7479,"EPHEMERIS_TYPE":0,"CLASSIFICATION_TYPE":"U","NORAD_CAT_ID":43251,"ELEMENT_SET_NO":999,"REV_AT_EPOCH":41074,"BSTAR":-5.28139e-7,"MEAN_MOTION_DOT":1.8e-7,"MEAN_MOTION_DDOT":0},{"OBJECT_NAME":"IRIDIUM 140","OBJECT_ID":"2018-030D","EPOCH":"2026-02-01T22:10:39.467424","MEAN_MOTION":14.34216668,"ECCENTRICITY":0.00021818,"INCLINATION":86.4005,"RA_OF_ASC_NODE":346.9801,"ARG_OF_PERICENTER":82.4495,"MEAN_ANOMALY":277.6949,"EPHEMERIS_TYPE":0,"CLASSIFICATION_TYPE":"U","NORAD_CAT_ID":43252,"ELEMENT_SET_NO":999,"REV_AT_EPOCH":41080,"BSTAR":1.370474e-6,"MEAN_MOTION_DOT":2.4e-7,"MEAN_MOTION_DDOT":0},{"OBJECT_NAME":"IRIDIUM 145","OBJECT_ID":"2018-030E","EPOCH":"2026-02-01T21:52:23.361600","MEAN_MOTION":14.34216649,"ECCENTRICITY":0.00020362,"INCLINATION":86.4008,"RA_OF_ASC_NODE":346.9586,"ARG_OF_PERICENTER":81.3381,"MEAN_ANOMALY":278.8045,"EPHEMERIS_TYPE":0,"CLASSIFICATION_TYPE":"U","NORAD_CAT_ID":43253,"ELEMENT_SET_NO":999,"REV_AT_EPOCH":41073,"BSTAR":0.00010263246,"MEAN_MOTION_DOT":3.07e-6,"MEAN_MOTION_DDOT":0},{"OBJECT_NAME":"IRIDIUM 146","OBJECT_ID":"2018-030F","EPOCH":"2026-02-01T23:05:27.454848","MEAN_MOTION":14.34217065,"ECCENTRICITY":0.00020224,"INCLINATION":86.4008,"RA_OF_ASC_NODE":346.9495,"ARG_OF_PERICENTER":82.1977,"MEAN_ANOMALY":277.9448,"EPHEMERIS_TYPE":0,"CLASSIFICATION_TYPE":"U","NORAD_CAT_ID":43254,"ELEMENT_SET_NO":999,"REV_AT_EPOCH":41075,"BSTAR":-4.442588e-6,"MEAN_MOTION_DOT":7.0e-8,"MEAN_MOTION_DDOT":0},{"OBJECT_NAME":"IRIDIUM 148","OBJECT_ID":"2018-030G","EPOCH":"2026-02-01T22:19:47.487936","MEAN_MOTION":14.34217186,"ECCENTRICITY":0.00020215,"INCLINATION":86.4,"RA_OF_ASC_NODE":347.0041,"ARG_OF_PERICENTER":85.9606,"MEAN_ANOMALY":274.1821,"EPHEMERIS_TYPE":0,"CLASSIFICATION_TYPE":"U","NORAD_CAT_ID":43255,"ELEMENT_SET_NO":999,"REV_AT_EPOCH":41078,"BSTAR":-1.7908665e-5,"MEAN_MOTION_DOT":-3.0e-7,"MEAN_MOTION_DDOT":0},{"OBJECT_NAME":"IRIDIUM 142","OBJECT_ID":"2018-030H","EPOCH":"2026-02-01T23:14:35.436480","MEAN_MOTION":14.34216516,"ECCENTRICITY":0.00019755,"INCLINATION":86.4001,"RA_OF_ASC_NODE":346.8819,"ARG_OF_PERICENTER":77.5022,"MEAN_ANOMALY":282.6395,"EPHEMERIS_TYPE":0,"CLASSIFICATION_TYPE":"U","NORAD_CAT_ID":43256,"ELEMENT_SET_NO":999,"REV_AT_EPOCH":41075,"BSTAR":9.1988901e-5,"MEAN_MOTION_DOT":2.77e-6,"MEAN_MOTION_DDOT":0},{"OBJECT_NAME":"IRIDIUM 150","OBJECT_ID":"2018-030J","EPOCH":"2026-02-01T22:28:54.940800","MEAN_MOTION":14.34220389,"ECCENTRICITY":0.00021473,"INCLINATION":86.4006,"RA_OF_ASC_NODE":347.0068,"ARG_OF_PERICENTER":82.8135,"MEAN_ANOMALY":277.3305,"EPHEMERIS_TYPE":0,"CLASSIFICATION_TYPE":"U","NORAD_CAT_ID":43257,"ELEMENT_SET_NO":999,"REV_AT_EPOCH":41077,"BSTAR":9.8526449e-5,"MEAN_MOTION_DOT":2.96e-6,"MEAN_MOTION_DDOT":0},{"OBJECT_NAME":"IRIDIUM 143","OBJECT_ID":"2018-030K","EPOCH":"2026-02-01T22:01:31.249920","MEAN_MOTION":14.34216643,"ECCENTRICITY":0.00021391,"INCLINATION":86.4013,"RA_OF_ASC_NODE":347.102,"ARG_OF_PERICENTER":79.3921,"MEAN_ANOMALY":280.7515,"EPHEMERIS_TYPE":0,"CLASSIFICATION_TYPE":"U","NORAD_CAT_ID":43258,"ELEMENT_SET_NO":999,"REV_AT_EPOCH":41070,"BSTAR":0.00011953087,"MEAN_MOTION_DOT":3.55e-6,"MEAN_MOTION_DDOT":0},{"OBJECT_NAME":"IRIDIUM 161","OBJECT_ID":"2018-047C","EPOCH":"2026-02-01T20:02:42.663264","MEAN_MOTION":14.43281855,"ECCENTRICITY":0.00022804,"INCLINATION":86.4541,"RA_OF_ASC_NODE":145.0518,"ARG_OF_PERICENTER":101.609,"MEAN_ANOMALY":258.5367,"EPHEMERIS_TYPE":0,"CLASSIFICATION_TYPE":"U","NORAD_CAT_ID":43478,"ELEMENT_SET_NO":999,"REV_AT_EPOCH":40561,"BSTAR":0.00012076547,"MEAN_MOTION_DOT":4.26e-6,"MEAN_MOTION_DDOT":0}]
