IRIDIUM 151             
1 43074U 17083E   26032.94651556  .00000095  00000+0  26749-4 0  9996
2 43074  86.3966  18.5678 0002177  87.4180 272.7265 14.34217083424754
IRIDIUM 134             
1 43075U 17083F   26032.98457163 -.00000108  00000+0 -45515-4 0  9998
2 43075  86.3965  18.5586 0002110  82.7430 277.4006 14.34216037424725
IRIDIUM 137             
1 43076U 17083G   26032.92748382  .00000226  00000+0  73652-4 0  9991
2 43076  86.3969  18.6723 0001712  89.0940 271.0452 14.34215068424781
IRIDIUM 141             
1 43077U 17083H   26032.92114835  .00000033  00000+0  48501-5 0  9994
2 43077  86.3969  18.5132 0002293  89.5860 270.5599 14.34217530424788
IRIDIUM 153             
1 43078U 17083J   26032.94309726  .00000340  00000+0  11423-3 0  9994
2 43078  86.4006 347.0083 0002480  85.9515 274.1964 14.34216962425899
IRIDIUM 131             
1 43079U 17083K   26032.97821936  .00000196  00000+0  62775-4 0  9996
2 43079  86.3972  18.6663 0002236  90.1900 269.9552 14.34211377424722
IRIDIUM 144             
1 43249U 18030A   26032.94943773  .00000116  00000+0  34340-4 0  9998
2 43249  86.4006 346.9378 0002076  82.1245 278.0186 14.34217000410756
IRIDIUM 149             
1 43250U 18030B   26032.95577935  .00000193  00000+0  61802-4 0  9992
2 43250  86.4004 346.9038 0002217  85.9437 274.2013 14.34217778410771
IRIDIUM 157             
1 43251U 18030C   26032.90503938  .00000018  00000+0 -52814-6 0  9992
2 43251  86.4009 346.9754 0002143  87.3962 272.7479 14.34216172410742
IRIDIUM 140             
1 43252U 18030D   26032.92406791  .00000024  00000+0  13705-5 0  9995
2 43252  86.4005 346.9801 0002181  82.4495 277.6949 14.34216668410804
IRIDIUM 145             
1 43253U 18030E   26032.91138150  .00000307  00000+0  10263-3 0  9994
2 43253  86.4008 346.9586 0002036  81.3381 278.8045 14.34216649410730
IRIDIUM 146             
1 43254U 18030F   26032.96212332  .00000007  00000+0 -44426-5 0  9993
2 43254  86.4008 346.9495 0002022  82.1977 277.9448 14.34217065410757
IRIDIUM 148             
1 43255U 18030G   26032.93041074 -.00000030  00000+0 -17909-4 0  9996
2 43255  86.4000 347.0041 0002021  85.9606 274.1821 14.34217186410789
IRIDIUM 142             
1 43256U 18030H   26032.96846570  .00000277  00000+0  91989-4 0  9995
2 43256  86.4001 346.8819 0001975  77.5022 282.6395 14.34216516410750
IRIDIUM 150             
1 43257U 18030J   26032.93674700  .00000296  00000+0  98526-4 0  9992
2 43257  86.4006 347.0068 0002147  82.8135 277.3305 14.34220389410778
IRIDIUM 143             
1 43258U 18030K   26032.91772280  .00000355  00000+0  11953-3 0  9997
2 43258  86.4013 347.1020 0002139  79.3921 280.7515 14.34216643410703
IRIDIUM 161             
1 43478U 18047C   26032.83521601  .00000426  00000+0  12077-3 0  9996
2 43478  86.4541 145.0518 0002280 101.6090 258.5367 14.43281855405612
